SKYKRAFT-1A             
1 55054U 23001AX  26068.71064616  .00008177  00000+0  30069-3 0  9991
2 55054  97.3349 127.6290 0011277 121.5092 238.7251 15.28083228176529
STARLINK-31666          
1 59572U 24076J   26068.17097980 -.00001767  00000+0 -54722-4 0  9996
2 59572  43.0036   4.9544 0001120 268.9882  91.0841 15.27577145106508
